{
  "norad_id": 67665,
  "name": "STARLINK-36399",
  "history": [
    {
      "epoch": "2026-03-28T15:22:46.599168",
      "apogee_km": 466.97136150661936,
      "perigee_km": 464.02996603873,
      "latitude_deg": -79.14975037907044,
      "longitude_deg": -71.98155647981912,
      "semi_major_axis_km": 6843.637663772674,
      "eccentricity": 0.0002149,
      "inclination_deg": 97.2839,
      "raan_deg": 121.6582,
      "arg_perigee_deg": 104.6067,
      "mean_anomaly_deg": 255.5415,
      "mean_motion_rev_day": 15.33459288
    },
    {
      "epoch": "2026-03-29T02:20:33.021024",
      "apogee_km": 466.40576975950626,
      "perigee_km": 464.6797937185529,
      "latitude_deg": -67.55205437193581,
      "longitude_deg": -28.129976639989763,
      "semi_major_axis_km": 6843.67978173903,
      "eccentricity": 0.0001261,
      "inclination_deg": 97.2846,
      "raan_deg": 122.1077,
      "arg_perigee_deg": 74.062,
      "mean_anomaly_deg": 286.0761,
      "mean_motion_rev_day": 15.33445132
    }
  ]
}